NORAD_CAT_ID,OBJECT_NAME,OBJECT_TYPE,EPOCH,MEAN_MOTION,ECCENTRICITY,INCLINATION,RA_OF_ASC_NODE,ARG_OF_PERICENTER,MEAN_ANOMALY,BSTAR,MEAN_MOTION_DOT,MEAN_MOTION_DDOT,TLE_LINE0,TLE_LINE1,TLE_LINE2,SEMIMAJOR_AXIS,PERIOD,APOGEE,PERIGEE,DECAYED
51718.0,STARLINK-3546,PAYLOAD,2023-05-18 12:48:24,15.08837333,0.0001286,53.2166,255.7143,92.3054,267.8086,1.5869e-05,-3.5e-07,0.0,0 STARLINK-3546,1 51718U 22016E   23138.53362062 -.00000035  00000-0  15869-4 0  9999,2 51718  53.2166 255.7143 0001286  92.3054 267.8086 15.08837333 69636,6917.889,95.438,540.643,538.864,0.0
51718.0,STARLINK-3546,PAYLOAD,2023-05-18 17:34:34,15.0883913,0.0001321,53.2164,254.8218,93.3536,266.7608,2.6988e-05,1.42e-06,0.0,0 STARLINK-3546,1 51718U 22016E   23138.73233915  .00000142  00000-0  26988-4 0  9997,2 51718  53.2164 254.8218 0001321  93.3536 266.7608 15.08839130 69661,6917.883,95.438,540.662,538.834,0.0
51718.0,STARLINK-3546,PAYLOAD,2023-05-19 12:39:11,15.08840863,0.000129,53.2167,251.2528,97.7989,262.3149,3.282e-05,2.34e-06,0.0,0 STARLINK-3546,1 51718U 22016E   23139.52721772  .00000234  00000-0  32820-4 0  9992,2 51718  53.2167 251.2528 0001290  97.7989 262.3149 15.08840863 69784,6917.878,95.438,540.635,538.85,0.0
51718.0,STARLINK-3546,PAYLOAD,2023-05-20 10:54:35,15.08842422,0.0001255,53.2167,247.0896,101.3988,258.7145,0.00010939,1.454e-05,0.0,0 STARLINK-3546,1 51718U 22016E   23140.45457519  .00001454  00000-0  10939-3 0  9992,2 51718  53.2167 247.0896 0001255 101.3988 258.7145 15.08842422 69853,6917.873,95.437,540.606,538.87,0.0
51718.0,STARLINK-3546,PAYLOAD,2023-05-20 14:05:21,15.08849164,0.0001142,53.2171,246.4957,83.8498,276.2624,0.00012519,1.706e-05,0.0,0 STARLINK-3546,1 51718U 22016E   23140.58705145  .00001706  00000-0  12519-3 0  9993,2 51718  53.2171 246.4957 0001142  83.8498 276.2624 15.08849164 69941,6917.852,95.437,540.507,538.927,0.0
51718.0,STARLINK-3546,PAYLOAD,2023-05-21 09:09:59,15.08839972,0.0001395,53.2173,242.9275,63.6308,296.4828,4.3439e-05,4.03e-06,0.0,0 STARLINK-3546,1 51718U 22016E   23141.38194080  .00000403  00000-0  43439-4 0  9991,2 51718  53.2173 242.9275 0001395  63.6308 296.4828 15.08839972 69994,6917.88,95.438,540.711,538.78,0.0
51718.0,STARLINK-3546,PAYLOAD,2023-05-21 10:45:22,15.08841032,0.0001066,53.2169,242.6293,102.6866,257.4245,4.4268e-05,4.17e-06,0.0,0 STARLINK-3546,1 51718U 22016E   23141.44817751  .00000417  00000-0  44268-4 0  9991,2 51718  53.2169 242.6293 0001066 102.6866 257.4245 15.08841032 70075,6917.877,95.437,540.48,539.005,0.0
51718.0,STARLINK-3546,PAYLOAD,2023-05-21 13:56:08,15.08842681,0.0001054,53.217,242.034,101.5074,258.6037,5.2633e-05,5.5e-06,0.0,0 STARLINK-3546,1 51718U 22016E   23141.58065589  .00000550  00000-0  52633-4 0  9993,2 51718  53.2170 242.0340 0001054 101.5074 258.6037 15.08842681 70095,6917.872,95.437,540.466,539.008,0.0
51718.0,STARLINK-3546,PAYLOAD,2023-05-22 09:00:47,15.08836179,9.53e-05,53.2163,238.4682,106.731,253.3787,-4.7793e-05,-1.048e-05,0.0,0 STARLINK-3546,1 51718U 22016E   23142.37554482 -.00001048  00000-0 -47793-4 0  9992,2 51718  53.2163 238.4682 0000953 106.7310 253.3787 15.08836179 70147,6917.892,95.438,540.416,539.098,0.0
51718.0,STARLINK-3546,PAYLOAD,2023-05-22 10:36:10,15.08836507,8.88e-05,53.2162,238.1714,102.6314,257.4777,-5.0918e-05,-1.098e-05,0.0,0 STARLINK-3546,1 51718U 22016E   23142.44178473 -.00001098  00000-0 -50918-4 0  9990,2 51718  53.2162 238.1714 0000888 102.6314 257.4777 15.08836507 70223,6917.891,95.438,540.37,539.142,0.0
51718.0,STARLINK-3546,PAYLOAD,2023-05-22 15:22:19,15.08842981,9.47e-05,53.2164,237.2787,105.7433,254.3663,6.2263e-06,-1.89e-06,0.0,0 STARLINK-3546,1 51718U 22016E   23142.64049894 -.00000189  00000-0  62263-5 0  9992,2 51718  53.2164 237.2787 0000947 105.7433 254.3663 15.08842981 70185,6917.871,95.437,540.391,539.081,0.0
51718.0,STARLINK-3546,PAYLOAD,2023-05-23 12:02:20,15.08833917,9.87e-05,53.2163,233.4133,112.9219,247.1877,-5.2158e-06,-3.71e-06,0.0,0 STARLINK-3546,1 51718U 22016E   23143.50162768 -.00000371  00000-0 -52158-5 0  9990,2 51718  53.2163 233.4133 0000987 112.9219 247.1877 15.08833917 70314,6917.899,95.438,540.447,539.081,0.0
51718.0,STARLINK-3546,PAYLOAD,2023-05-23 13:37:43,15.08836076,9.6e-05,53.2166,233.1157,109.4002,250.7094,1.5778e-05,-3.7e-07,0.0,0 STARLINK-3546,1 51718U 22016E   23143.56786597 -.00000037  00000-0  15778-4 0  9992,2 51718  53.2166 233.1157 0000960 109.4002 250.7094 15.08836076 70390,6917.892,95.438,540.422,539.093,0.0
51718.0,STARLINK-3546,PAYLOAD,2023-05-24 15:03:53,15.08840964,0.0001022,53.2171,228.3579,90.1396,269.9714,0.00010627,1.404e-05,0.0,0 STARLINK-3546,1 51718U 22016E   23144.62770376  .00001404  00000-0  10627-3 0  9993,2 51718  53.2171 228.3579 0001022  90.1396 269.9714 15.08840964 70484,6917.877,95.437,540.449,539.035,0.0
51718.0,STARLINK-3546,PAYLOAD,2023-05-26 11:34:41,15.08844571,0.0001149,53.2172,220.0321,114.496,245.6152,3.1202e-05,2.09e-06,0.0,0 STARLINK-3546,1 51718U 22016E   23146.48242125  .00000209  00000-0  31202-4 0  9990,2 51718  53.2172 220.0321 0001149 114.4960 245.6152 15.08844571 70762,6917.866,95.437,540.526,538.937,0.0
51718.0,STARLINK-3546,PAYLOAD,2023-05-27 11:25:28,15.08836634,9.92e-05,53.217,215.5726,98.7046,261.4059,-9.7084e-06,-4.42e-06,0.0,0 STARLINK-3546,1 51718U 22016E   23147.47602768 -.00000442  00000-0 -97084-5 0  9995,2 51718  53.2170 215.5726 0000992  98.7046 261.4059 15.08836634 70912,6917.891,95.438,540.442,539.069,0.0
51718.0,STARLINK-3546,PAYLOAD,2023-05-27 20:57:47,15.0883593,9.35e-05,53.2165,213.787,92.2294,267.8805,-1.753e-05,-5.67e-06,0.0,0 STARLINK-3546,1 51718U 22016E   23147.87346891 -.00000567  00000-0 -17530-4 0  9996,2 51718  53.2165 213.7870 0000935  92.2294 267.8805 15.08835930 71049,6917.893,95.438,540.405,539.111,0.0
51718.0,STARLINK-3546,PAYLOAD,2023-05-28 03:19:20,15.0883671,8.76e-05,53.216,212.5971,89.6967,270.4125,4.1063e-06,-2.22e-06,0.0,0 STARLINK-3546,1 51718U 22016E   23148.13842786 -.00000222  00000-0  41063-5 0  9996,2 51718  53.2160 212.5971 0000876  89.6967 270.4125 15.08836710 71080,6917.89,95.438,540.361,539.149,0.0
51718.0,STARLINK-3546,PAYLOAD,2023-05-28 20:48:34,15.08841122,8.61e-05,53.2161,209.3265,88.7646,271.3445,7.3371e-05,8.8e-06,0.0,0 STARLINK-3546,1 51718U 22016E   23148.86706299  .00000880  00000-0  73371-4 0  9999,2 51718  53.2161 209.3265 0000861  88.7646 271.3445 15.08841122 71199,6917.877,95.437,540.338,539.146,0.0
51718.0,STARLINK-3546,PAYLOAD,2023-05-29 09:31:39,15.08834502,8.81e-05,53.2162,206.9477,88.2963,271.813,2.4984e-05,1.1e-06,0.0,0 STARLINK-3546,1 51718U 22016E   23149.39698966  .00000110  00000-0  24984-4 0  9991,2 51718  53.2162 206.9477 0000881  88.2963 271.8130 15.08834502 71209,6917.897,95.438,540.372,539.153,0.0
51718.0,STARLINK-3546,PAYLOAD,2023-05-29 20:39:21,15.08835583,8.93e-05,53.2162,204.8662,86.8551,273.2543,3.3727e-05,2.49e-06,0.0,0 STARLINK-3546,1 51718U 22016E   23149.86066976  .00000249  00000-0  33727-4 0  9991,2 51718  53.2162 204.8662 0000893  86.8551 273.2543 15.08835583 71341,6917.894,95.438,540.377,539.141,0.0
51718.0,STARLINK-3546,PAYLOAD,2023-05-30 10:57:50,15.08837291,9.71e-05,53.2166,202.1912,94.0674,266.0429,7.8746e-06,-1.62e-06,0.0,0 STARLINK-3546,1 51718U 22016E   23150.45683111 -.00000162  00000-0  78746-5 0  9990,2 51718  53.2166 202.1912 0000971  94.0674 266.0429 15.08837291 71439,6917.889,95.438,540.425,539.082,0.0
51718.0,STARLINK-3546,PAYLOAD,2023-05-30 20:30:08,15.0883992,9.85e-05,53.2164,200.4063,83.8616,276.2488,5.3127e-06,-2.03e-06,0.0,0 STARLINK-3546,1 51718U 22016E   23150.85426995 -.00000203  00000-0  53127-5 0  9991,2 51718  53.2164 200.4063 0000985  83.8616 276.2488 15.08839920 71497,6917.881,95.438,540.427,539.064,0.0
51718.0,STARLINK-3546,PAYLOAD,2023-05-31 10:48:36,15.08841016,9.59e-05,53.2163,197.7291,83.4106,276.6995,6.4513e-05,7.39e-06,0.0,0 STARLINK-3546,1 51718U 22016E   23151.45042761  .00000739  00000-0  64513-4 0  9996,2 51718  53.2163 197.7291 0000959  83.4106 276.6995 15.08841016 71584,6917.877,95.437,540.406,539.079,0.0
51718.0,STARLINK-3546,PAYLOAD,2023-05-31 20:20:55,15.08839079,9.6e-05,53.2162,195.9449,82.2704,277.8397,4.7589e-05,4.7e-06,0.0,0 STARLINK-3546,1 51718U 22016E   23151.84786936  .00000470  00000-0  47589-4 0  9994,2 51718  53.2162 195.9449 0000960  82.2704 277.8397 15.08839079 71643,6917.883,95.438,540.412,539.084,0.0
51718.0,STARLINK-3546,PAYLOAD,2023-06-01 02:42:28,15.08836233,9.63e-05,53.2162,194.7555,83.3126,276.7975,4.864e-05,4.86e-06,0.0,0 STARLINK-3546,1 51718U 22016E   23152.11283144  .00000486  00000-0  48640-4 0  9994,2 51718  53.2162 194.7555 0000963  83.3126 276.7975 15.08836233 71617,6917.892,95.438,540.423,539.091,0.0
51718.0,STARLINK-3546,PAYLOAD,2023-06-01 09:04:01,15.08838503,9.78e-05,53.2161,193.5662,82.5699,277.5404,5.9889e-05,6.65e-06,0.0,0 STARLINK-3546,1 51718U 22016E   23152.37779008  .00000665  00000-0  59889-4 0  9997,2 51718  53.2161 193.5662 0000978  82.5699 277.5404 15.08838503 71724,6917.885,95.438,540.427,539.073,0.0
51718.0,STARLINK-3546,PAYLOAD,2023-06-01 20:11:42,15.08841334,9.84e-05,53.2162,191.4847,81.5325,278.5779,4.572e-05,4.4e-06,0.0,0 STARLINK-3546,1 51718U 22016E   23152.84146862  .00000440  00000-0  45720-4 0  9995,2 51718  53.2162 191.4847 0000984  81.5325 278.5779 15.08841334 71798,6917.876,95.437,540.422,539.061,0.0
51718.0,STARLINK-3546,PAYLOAD,2023-06-02 12:05:34,15.08843345,9.95e-05,53.2161,188.5107,84.5664,275.5442,3.1821e-05,2.19e-06,0.0,0 STARLINK-3546,1 51718U 22016E   23153.50386737  .00000219  00000-0  31821-4 0  9997,2 51718  53.2161 188.5107 0000995  84.5664 275.5442 15.08843345 71826,6917.87,95.437,540.423,539.047,0.0
51718.0,STARLINK-3546,PAYLOAD,2023-06-03 11:56:21,15.0883595,0.0001014,53.216,184.0494,89.3289,270.7819,-1.5421e-05,-5.33e-06,0.0,0 STARLINK-3546,1 51718U 22016E   23154.49747412 -.00000533  00000-0 -15421-4 0  9996,2 51718  53.2160 184.0494 0001014  89.3289 270.7819 15.08835950 71978,6917.893,95.438,540.459,539.056,0.0
